{
  "Guangzhou": {
    "city": "Guangzhou",
    "metar_temp": 31,
    "metar_raw": "METAR (ZGGG): ZGGG 070730Z 13005MPS 100V160 9999 -SHRA SCT020 BKN040 31/26 Q1006 NOSIG",
    "spread": 3.5,
    "models": [
      {
        "name": "GFS",
        "temp": 26.0
      },
      {
        "name": "ICON",
        "temp": 29.5
      },
      {
        "name": "GEM",
        "temp": 26.2
      }
    ],
    "weather": {
      "clouds": 98,
      "humidity": 86,
      "condition": "Thunderstorm"
    },
    "updated_at": "11:03:49"
  },
  "Chengdu": {
    "city": "Chengdu",
    "metar_temp": 35,
    "metar_raw": "METAR (ZUUU): ZUUU 070700Z VRB02MPS 9999 FEW023 35/23 Q1000 NOSIG",
    "spread": 2.1,
    "models": [
      {
        "name": "GFS",
        "temp": 34.3
      },
      {
        "name": "ICON",
        "temp": 36.4
      },
      {
        "name": "GEM",
        "temp": 36.2
      }
    ],
    "weather": {
      "clouds": 33,
      "humidity": 42,
      "condition": "Clear"
    },
    "updated_at": "11:03:50"
  },
  "Hong Kong": {
    "city": "Hong Kong",
    "metar_temp": 28,
    "metar_raw": "OFFICIAL HKO STATION (TST)",
    "spread": 1.9,
    "models": [
      {
        "name": "GFS",
        "temp": 29.2
      },
      {
        "name": "ICON",
        "temp": 28.1
      },
      {
        "name": "GEM",
        "temp": 30.0
      }
    ],
    "weather": {
      "clouds": 97,
      "humidity": 84,
      "condition": "Cloudy"
    },
    "updated_at": "11:03:52"
  },
  "Shenzhen": {
    "city": "Shenzhen",
    "metar_temp": 27,
    "metar_raw": "METAR (ZGSZ): ZGSZ 070700Z 04002MPS 010V090 9999 -SHRA FEW015 BKN043 27/25 Q1006 BECMG AT0720 SHRA SCT012 FEW025CB BKN033",
    "spread": 1.9,
    "models": [
      {
        "name": "GFS",
        "temp": 30.0
      },
      {
        "name": "ICON",
        "temp": 28.5
      },
      {
        "name": "GEM",
        "temp": 30.4
      }
    ],
    "weather": {
      "clouds": 94,
      "humidity": 89,
      "condition": "Cloudy"
    },
    "updated_at": "11:03:53"
  },
  "Beijing": {
    "city": "Beijing",
    "metar_temp": 26,
    "metar_raw": "METAR (ZBAA): ZBAA 070730Z 16007G12MPS 120V190 9999 -TSRA FEW050CB 26/22 Q0998 NOSIG",
    "spread": 3.6,
    "models": [
      {
        "name": "GFS",
        "temp": 30.1
      },
      {
        "name": "ICON",
        "temp": 30.7
      },
      {
        "name": "GEM",
        "temp": 27.1
      }
    ],
    "weather": {
      "clouds": 85,
      "humidity": 59,
      "condition": "Cloudy"
    },
    "updated_at": "11:03:55"
  },
  "Chongqing": {
    "city": "Chongqing",
    "metar_temp": 37,
    "metar_raw": "METAR (ZUCK): ZUCK 070700Z VRB02MPS 9999 SCT036 37/22 Q0999 NOSIG",
    "spread": 1.6,
    "models": [
      {
        "name": "GFS",
        "temp": 37.2
      },
      {
        "name": "ICON",
        "temp": 37.1
      },
      {
        "name": "GEM",
        "temp": 38.7
      }
    ],
    "weather": {
      "clouds": 95,
      "humidity": 52,
      "condition": "Overcast"
    },
    "updated_at": "11:03:56"
  },
  "Taipei": {
    "city": "Taipei",
    "metar_temp": 34,
    "metar_raw": "METAR (RCTP): RCTP 070730Z 28016KT 9999 FEW020 SCT200 34/26 Q1008 NOSIG RMK A2978",
    "spread": 2.1,
    "models": [
      {
        "name": "GFS",
        "temp": 32.3
      },
      {
        "name": "ICON",
        "temp": 30.2
      },
      {
        "name": "GEM",
        "temp": 30.3
      }
    ],
    "weather": {
      "clouds": 61,
      "humidity": 59,
      "condition": "Cloudy"
    },
    "updated_at": "11:03:57"
  },
  "Kuala Lumpur": {
    "city": "Kuala Lumpur",
    "metar_temp": 31,
    "metar_raw": "METAR (WMKK): WMKK 070730Z 15004KT 080V230 9999 FEW017CB 31/25 Q1008 NOSIG",
    "spread": 2.9,
    "models": [
      {
        "name": "GFS",
        "temp": 29.9
      },
      {
        "name": "ICON",
        "temp": 31.6
      },
      {
        "name": "GEM",
        "temp": 28.7
      }
    ],
    "weather": {
      "clouds": 91,
      "humidity": 70,
      "condition": "Cloudy"
    },
    "updated_at": "11:03:58"
  },
  "Lucknow": {
    "city": "Lucknow",
    "metar_temp": 34,
    "metar_raw": "METAR (VILK): VILK 070800Z 07010G20KT 5000 HZ SCT020 BKN100 34/25 Q0996 NOSIG",
    "spread": 6.0,
    "models": [
      {
        "name": "GFS",
        "temp": 36.4
      },
      {
        "name": "ICON",
        "temp": 30.4
      },
      {
        "name": "GEM",
        "temp": 35.0
      }
    ],
    "weather": {
      "clouds": 63,
      "humidity": 91,
      "condition": "Cloudy"
    },
    "updated_at": "11:04:00"
  },
  "Busan": {
    "city": "Busan",
    "metar_temp": 28,
    "metar_raw": "METAR (RKPK): RKPK 070700Z 19010KT 9999 FEW005 SCT020 BKN030 28/25 Q1008",
    "spread": 1.7,
    "models": [
      {
        "name": "GFS",
        "temp": 28.0
      },
      {
        "name": "ICON",
        "temp": 26.3
      },
      {
        "name": "GEM",
        "temp": 27.0
      }
    ],
    "weather": {
      "clouds": 79,
      "humidity": 93,
      "condition": "Partly Cloudy"
    },
    "updated_at": "11:04:01"
  },
  "London": {
    "city": "London",
    "metar_temp": 22,
    "metar_raw": "METAR (EGLL): EGLL 070750Z AUTO 27012KT 9999 NCD 22/12 Q1016",
    "spread": 2.8,
    "models": [
      {
        "name": "GFS",
        "temp": 23.7
      },
      {
        "name": "ICON",
        "temp": 20.9
      },
      {
        "name": "GEM",
        "temp": 23.0
      }
    ],
    "weather": {
      "clouds": 21,
      "humidity": 56,
      "condition": "Clear"
    },
    "updated_at": "11:04:02"
  },
  "Paris": {
    "city": "Paris",
    "metar_temp": 28,
    "metar_raw": "METAR (LFPG): LFPG 070800Z 27007KT CAVOK 28/08 Q1018 NOSIG",
    "spread": 1.8,
    "models": [
      {
        "name": "GFS",
        "temp": 27.1
      },
      {
        "name": "ICON",
        "temp": 27.0
      },
      {
        "name": "GEM",
        "temp": 25.3
      }
    ],
    "weather": {
      "clouds": 69,
      "humidity": 38,
      "condition": "Partly Cloudy"
    },
    "updated_at": "11:04:03"
  },
  "Madrid": {
    "city": "Madrid",
    "metar_temp": 26,
    "metar_raw": "METAR (LEMD): LEMD 070730Z VRB02KT CAVOK 26/07 Q1021 NOSIG",
    "spread": 2.3,
    "models": [
      {
        "name": "GFS",
        "temp": 29.7
      },
      {
        "name": "ICON",
        "temp": 28.7
      },
      {
        "name": "GEM",
        "temp": 27.4
      }
    ],
    "weather": {
      "clouds": 49,
      "humidity": 28,
      "condition": "Clear"
    },
    "updated_at": "11:04:05"
  },
  "Munich": {
    "city": "Munich",
    "metar_temp": 26,
    "metar_raw": "METAR (EDDM): EDDM 070750Z AUTO 26014KT 230V290 CAVOK 26/13 Q1018 BECMG 26015G25KT",
    "spread": 1.0,
    "models": [
      {
        "name": "GFS",
        "temp": 23.9
      },
      {
        "name": "ICON",
        "temp": 24.7
      },
      {
        "name": "GEM",
        "temp": 23.7
      }
    ],
    "weather": {
      "clouds": 81,
      "humidity": 42,
      "condition": "Overcast"
    },
    "updated_at": "11:04:06"
  },
  "Helsinki": {
    "city": "Helsinki",
    "metar_temp": 13,
    "metar_raw": "METAR (EFHK): EFHK 070750Z 26007KT 230V290 9999 -SHRA SCT008 BKN029 FEW030CB 13/11 Q0993 NOSIG",
    "spread": 2.5,
    "models": [
      {
        "name": "GFS",
        "temp": 11.7
      },
      {
        "name": "ICON",
        "temp": 13.0
      },
      {
        "name": "GEM",
        "temp": 14.2
      }
    ],
    "weather": {
      "clouds": 100,
      "humidity": 92,
      "condition": "Cloudy"
    },
    "updated_at": "11:04:07"
  },
  "Moscow": {
    "city": "Moscow",
    "metar_temp": 18,
    "metar_raw": "METAR (UUEE): UUEE 070730Z 22007MPS 9999 SCT021 18/12 Q1005 R24L/220157 R24C/220157 NOSIG",
    "spread": 1.3,
    "models": [
      {
        "name": "GFS",
        "temp": 18.6
      },
      {
        "name": "ICON",
        "temp": 17.6
      },
      {
        "name": "GEM",
        "temp": 17.3
      }
    ],
    "weather": {
      "clouds": 100,
      "humidity": 72,
      "condition": "Overcast"
    },
    "updated_at": "11:04:08"
  },
  "NYC": {
    "city": "NYC",
    "metar_temp": 18,
    "metar_raw": "METAR (KJFK): KJFK 070751Z 05010KT 5SM BR OVC005 18/17 A3002 RMK SLP165 T01780172 $",
    "spread": 1.3,
    "models": [
      {
        "name": "GFS",
        "temp": 19.0
      },
      {
        "name": "ICON",
        "temp": 19.8
      },
      {
        "name": "GEM",
        "temp": 20.3
      }
    ],
    "weather": {
      "clouds": 100,
      "humidity": 95,
      "condition": "Overcast"
    },
    "updated_at": "11:04:10"
  },
  "Mexico City": {
    "city": "Mexico City",
    "metar_temp": 15,
    "metar_raw": "METAR (MMMX): MMMX 070741Z 29005KT 9SM SCT100 BKN250 15/11 A3035 NOSIG RMK 8/038 HZY",
    "spread": 3.5,
    "models": [
      {
        "name": "GFS",
        "temp": 15.9
      },
      {
        "name": "ICON",
        "temp": 16.3
      },
      {
        "name": "GEM",
        "temp": 12.8
      }
    ],
    "weather": {
      "clouds": 98,
      "humidity": 88,
      "condition": "Overcast"
    },
    "updated_at": "11:04:11"
  },
  "San Francisco": {
    "city": "San Francisco",
    "metar_temp": 13,
    "metar_raw": "METAR (KSFO): KSFO 070756Z 26009G14KT 10SM FEW004 BKN007 OVC010 13/12 A3001 RMK AO2 SLP162 T01330117 402000133 $",
    "spread": 0.8,
    "models": [
      {
        "name": "GFS",
        "temp": 12.1
      },
      {
        "name": "ICON",
        "temp": 12.8
      },
      {
        "name": "GEM",
        "temp": 12.9
      }
    ],
    "weather": {
      "clouds": 100,
      "humidity": 100,
      "condition": "Overcast"
    },
    "updated_at": "11:04:12"
  },
  "Panama": {
    "city": "Panama",
    "metar_temp": 26,
    "metar_raw": "METAR (MPTO): MPTO 070800Z 25003KT 9999 FEW018 26/24 Q1009 NOSIG",
    "spread": 2.3,
    "models": [
      {
        "name": "GFS",
        "temp": 24.8
      },
      {
        "name": "ICON",
        "temp": 27.0
      },
      {
        "name": "GEM",
        "temp": 27.1
      }
    ],
    "weather": {
      "clouds": 34,
      "humidity": 90,
      "condition": "Clear"
    },
    "updated_at": "11:04:13"
  }
}