{
  "Guangzhou": {
    "city": "Guangzhou",
    "metar_temp": 30,
    "metar_raw": "2026/07/07 07:00\nZGGG 070700Z 13007MPS 9999 -SHRA BKN020 30/25 Q1006 NOSIG",
    "spread": 4.2,
    "models": [
      {
        "name": "GFS",
        "temp": 26.8
      },
      {
        "name": "ICON",
        "temp": 29.9
      },
      {
        "name": "GEM",
        "temp": 25.7
      }
    ],
    "weather": {
      "clouds": 92,
      "humidity": 90,
      "condition": "Cloudy",
      "precip": 0.2
    },
    "updated_at": "10:17:20"
  },
  "Chengdu": {
    "city": "Chengdu",
    "metar_temp": 35,
    "metar_raw": "2026/07/07 07:00\nZUUU 070700Z VRB02MPS 9999 FEW023 35/23 Q1000 NOSIG",
    "spread": 2.5,
    "models": [
      {
        "name": "GFS",
        "temp": 34.1
      },
      {
        "name": "ICON",
        "temp": 36.6
      },
      {
        "name": "GEM",
        "temp": 36.5
      }
    ],
    "weather": {
      "clouds": 28,
      "humidity": 43,
      "condition": "Mainly Clear",
      "precip": 0.0
    },
    "updated_at": "10:17:21"
  },
  "Hong Kong": {
    "city": "Hong Kong",
    "metar_temp": 30,
    "metar_raw": "2026/07/07 07:00\nVHHH 070700Z 15003KT 100V260 9999 FEW010 SCT025 30/26 Q1006 TEMPO 2500 TSRA SHRA FEW010CB SCT020",
    "spread": 2.3,
    "models": [
      {
        "name": "GFS",
        "temp": 29.4
      },
      {
        "name": "ICON",
        "temp": 27.8
      },
      {
        "name": "GEM",
        "temp": 30.1
      }
    ],
    "weather": {
      "clouds": 99,
      "humidity": 93,
      "condition": "Drizzle",
      "precip": 0.1
    },
    "updated_at": "10:17:23"
  },
  "Shenzhen": {
    "city": "Shenzhen",
    "metar_temp": 27,
    "metar_raw": "2026/07/07 07:00\nZGSZ 070700Z 04002MPS 010V090 9999 -SHRA FEW015 BKN043 27/25 Q1006 BECMG AT0720 SHRA SCT012 FEW025CB BKN033",
    "spread": 2.1,
    "models": [
      {
        "name": "GFS",
        "temp": 29.4
      },
      {
        "name": "ICON",
        "temp": 28.4
      },
      {
        "name": "GEM",
        "temp": 30.5
      }
    ],
    "weather": {
      "clouds": 98,
      "humidity": 90,
      "condition": "Drizzle",
      "precip": 0.1
    },
    "updated_at": "10:17:24"
  },
  "Beijing": {
    "city": "Beijing",
    "metar_temp": 27,
    "metar_raw": "2026/07/07 07:00\nZBAA 070700Z 12007MPS 090V170 9999 FEW050CB 27/21 Q0997 BECMG TL0740 18006MPS TS",
    "spread": 3.2,
    "models": [
      {
        "name": "GFS",
        "temp": 30.4
      },
      {
        "name": "ICON",
        "temp": 30.8
      },
      {
        "name": "GEM",
        "temp": 27.6
      }
    ],
    "weather": {
      "clouds": 84,
      "humidity": 62,
      "condition": "Drizzle",
      "precip": 0.1
    },
    "updated_at": "10:17:25"
  },
  "Chongqing": {
    "city": "Chongqing",
    "metar_temp": 37,
    "metar_raw": "2026/07/07 07:00\nZUCK 070700Z VRB02MPS 9999 SCT036 37/22 Q0999 NOSIG",
    "spread": 1.6,
    "models": [
      {
        "name": "GFS",
        "temp": 36.8
      },
      {
        "name": "ICON",
        "temp": 36.9
      },
      {
        "name": "GEM",
        "temp": 38.4
      }
    ],
    "weather": {
      "clouds": 98,
      "humidity": 51,
      "condition": "Overcast",
      "precip": 0.0
    },
    "updated_at": "10:17:26"
  },
  "Taipei": {
    "city": "Taipei",
    "metar_temp": 35,
    "metar_raw": "2026/07/07 07:00\nRCTP 070700Z 29014KT 9999 FEW020 SCT200 35/23 Q1008 NOSIG RMK A2977",
    "spread": 1.8,
    "models": [
      {
        "name": "GFS",
        "temp": 32.5
      },
      {
        "name": "ICON",
        "temp": 30.7
      },
      {
        "name": "GEM",
        "temp": 30.7
      }
    ],
    "weather": {
      "clouds": 62,
      "humidity": 58,
      "condition": "Drizzle",
      "precip": 0.1
    },
    "updated_at": "10:17:27"
  },
  "Kuala Lumpur": {
    "city": "Kuala Lumpur",
    "metar_temp": 31,
    "metar_raw": "2026/07/07 07:00\nWMKK 070700Z VRB02KT 9999 FEW017CB SCT018 31/26 Q1009 NOSIG",
    "spread": 3.9,
    "models": [
      {
        "name": "GFS",
        "temp": 30.9
      },
      {
        "name": "ICON",
        "temp": 31.8
      },
      {
        "name": "GEM",
        "temp": 27.9
      }
    ],
    "weather": {
      "clouds": 85,
      "humidity": 72,
      "condition": "Drizzle",
      "precip": 0.1
    },
    "updated_at": "10:17:29"
  },
  "Lucknow": {
    "city": "Lucknow",
    "metar_temp": 33,
    "metar_raw": "2026/07/07 07:00\nVILK 070700Z 08010G20KT 5000 HZ SCT020 BKN100 33/25 Q0997 NOSIG",
    "spread": 4.6,
    "models": [
      {
        "name": "GFS",
        "temp": 35.8
      },
      {
        "name": "ICON",
        "temp": 31.4
      },
      {
        "name": "GEM",
        "temp": 36.0
      }
    ],
    "weather": {
      "clouds": 100,
      "humidity": 70,
      "condition": "Cloudy",
      "precip": 1.4
    },
    "updated_at": "10:17:30"
  },
  "Busan": {
    "city": "Busan",
    "metar_temp": 28,
    "metar_raw": "2026/07/07 07:00\nRKPK 070700Z 19010KT 9999 FEW005 SCT020 BKN030 28/25 Q1008",
    "spread": 2.2,
    "models": [
      {
        "name": "GFS",
        "temp": 28.7
      },
      {
        "name": "ICON",
        "temp": 26.5
      },
      {
        "name": "GEM",
        "temp": 27.5
      }
    ],
    "weather": {
      "clouds": 72,
      "humidity": 92,
      "condition": "Partly Cloudy",
      "precip": 0.0
    },
    "updated_at": "10:17:31"
  },
  "London": {
    "city": "London",
    "metar_temp": 20,
    "metar_raw": "2026/07/07 06:50\nEGLL 070650Z AUTO 29007KT 9999 NCD 20/11 Q1016",
    "spread": 1.8,
    "models": [
      {
        "name": "GFS",
        "temp": 21.6
      },
      {
        "name": "ICON",
        "temp": 19.8
      },
      {
        "name": "GEM",
        "temp": 21.1
      }
    ],
    "weather": {
      "clouds": 73,
      "humidity": 59,
      "condition": "Partly Cloudy",
      "precip": 0.0
    },
    "updated_at": "10:17:33"
  },
  "Paris": {
    "city": "Paris",
    "metar_temp": 26,
    "metar_raw": "2026/07/07 07:00\nLFPG 070700Z 26005KT CAVOK 26/10 Q1018 NOSIG",
    "spread": 3.1,
    "models": [
      {
        "name": "GFS",
        "temp": 25.6
      },
      {
        "name": "ICON",
        "temp": 25.0
      },
      {
        "name": "GEM",
        "temp": 22.5
      }
    ],
    "weather": {
      "clouds": 60,
      "humidity": 41,
      "condition": "Partly Cloudy",
      "precip": 0.0
    },
    "updated_at": "10:17:34"
  },
  "Madrid": {
    "city": "Madrid",
    "metar_temp": 24,
    "metar_raw": "2026/07/07 07:00\nLEMD 070700Z VRB02KT CAVOK 24/09 Q1021 NOSIG",
    "spread": 5.0,
    "models": [
      {
        "name": "GFS",
        "temp": 28.5
      },
      {
        "name": "ICON",
        "temp": 26.6
      },
      {
        "name": "GEM",
        "temp": 23.5
      }
    ],
    "weather": {
      "clouds": 53,
      "humidity": 33,
      "condition": "Mainly Clear",
      "precip": 0.0
    },
    "updated_at": "10:17:35"
  },
  "Munich": {
    "city": "Munich",
    "metar_temp": 23,
    "metar_raw": "2026/07/07 06:50\nEDDM 070650Z AUTO 25011KT CAVOK 23/13 Q1018 NOSIG",
    "spread": 1.2,
    "models": [
      {
        "name": "GFS",
        "temp": 21.4
      },
      {
        "name": "ICON",
        "temp": 22.6
      },
      {
        "name": "GEM",
        "temp": 22.2
      }
    ],
    "weather": {
      "clouds": 92,
      "humidity": 48,
      "condition": "Overcast",
      "precip": 0.0
    },
    "updated_at": "10:17:36"
  },
  "Helsinki": {
    "city": "Helsinki",
    "metar_temp": 13,
    "metar_raw": "2026/07/07 06:50\nEFHK 070650Z 27007KT 9999 SCT007 BKN030 13/11 Q0992 NOSIG",
    "spread": 2.7,
    "models": [
      {
        "name": "GFS",
        "temp": 11.0
      },
      {
        "name": "ICON",
        "temp": 12.5
      },
      {
        "name": "GEM",
        "temp": 13.7
      }
    ],
    "weather": {
      "clouds": 100,
      "humidity": 92,
      "condition": "Drizzle",
      "precip": 0.1
    },
    "updated_at": "10:17:37"
  },
  "Moscow": {
    "city": "Moscow",
    "metar_temp": 17,
    "metar_raw": "2026/07/07 07:00\nUUEE 070700Z 23006MPS CAVOK 17/12 Q1005 R24L/220157 R24C/220157 NOSIG",
    "spread": 1.0,
    "models": [
      {
        "name": "GFS",
        "temp": 18.0
      },
      {
        "name": "ICON",
        "temp": 17.0
      },
      {
        "name": "GEM",
        "temp": 17.3
      }
    ],
    "weather": {
      "clouds": 93,
      "humidity": 73,
      "condition": "Overcast",
      "precip": 0.1
    },
    "updated_at": "10:17:39"
  },
  "NYC": {
    "city": "NYC",
    "metar_temp": 18,
    "metar_raw": "2026/07/07 06:51\nKJFK 070651Z 03010KT 6SM BR OVC005 18/17 A3003 RMK SLP168 T01830172 $",
    "spread": 1.4,
    "models": [
      {
        "name": "GFS",
        "temp": 18.8
      },
      {
        "name": "ICON",
        "temp": 19.8
      },
      {
        "name": "GEM",
        "temp": 20.2
      }
    ],
    "weather": {
      "clouds": 100,
      "humidity": 94,
      "condition": "Overcast",
      "precip": 0.0
    },
    "updated_at": "10:17:40"
  },
  "Mexico City": {
    "city": "Mexico City",
    "metar_temp": 16,
    "metar_raw": "2026/07/07 06:45\nMMMX 070645Z 30004KT 9SM SCT100 BKN250 16/12 A3036 NOSIG RMK 8/038 HZY",
    "spread": 2.8,
    "models": [
      {
        "name": "GFS",
        "temp": 16.5
      },
      {
        "name": "ICON",
        "temp": 16.5
      },
      {
        "name": "GEM",
        "temp": 13.7
      }
    ],
    "weather": {
      "clouds": 89,
      "humidity": 86,
      "condition": "Overcast",
      "precip": 0.0
    },
    "updated_at": "10:17:41"
  },
  "San Francisco": {
    "city": "San Francisco",
    "metar_temp": 13,
    "metar_raw": "2026/07/07 06:56\nKSFO 070656Z 27008KT 10SM FEW004 BKN007 OVC011 13/12 A3002 RMK AO2 SLP164 T01330117 $",
    "spread": 1.1,
    "models": [
      {
        "name": "GFS",
        "temp": 11.8
      },
      {
        "name": "ICON",
        "temp": 12.9
      },
      {
        "name": "GEM",
        "temp": 12.9
      }
    ],
    "weather": {
      "clouds": 100,
      "humidity": 98,
      "condition": "Overcast",
      "precip": 0.0
    },
    "updated_at": "10:17:42"
  },
  "Panama": {
    "city": "Panama",
    "metar_temp": 26,
    "metar_raw": "2026/07/07 07:00\nMPTO 070700Z VRB02KT 9999 FEW018 26/24 Q1009 NOSIG",
    "spread": 2.3,
    "models": [
      {
        "name": "GFS",
        "temp": 24.8
      },
      {
        "name": "ICON",
        "temp": 27.1
      },
      {
        "name": "GEM",
        "temp": 27.0
      }
    ],
    "weather": {
      "clouds": 59,
      "humidity": 89,
      "condition": "Partly Cloudy",
      "precip": 0.0
    },
    "updated_at": "10:17:44"
  }
}