{
  "Guangzhou": {
    "city": "Guangzhou",
    "metar_temp": 30,
    "metar_raw": "2026/07/07 06:30\nZGGG 070630Z 13006MPS 9999 -SHRA BKN020 30/25 Q1006 NOSIG",
    "spread": 4.1,
    "models": [
      {
        "name": "GFS",
        "temp": 26.5
      },
      {
        "name": "ICON",
        "temp": 30.4
      },
      {
        "name": "GEM",
        "temp": 30.6
      }
    ],
    "weather": {
      "clouds": 94,
      "humidity": 86,
      "condition": "Thunderstorm",
      "precip": 0.9
    },
    "updated_at": "09:41:38"
  },
  "Chengdu": {
    "city": "Chengdu",
    "metar_temp": 36,
    "metar_raw": "2026/07/07 06:00\nZUUU 070600Z 15003MPS 050V190 9999 FEW023 36/22 Q1001 NOSIG",
    "spread": 3.2,
    "models": [
      {
        "name": "GFS",
        "temp": 34.1
      },
      {
        "name": "ICON",
        "temp": 36.7
      },
      {
        "name": "GEM",
        "temp": 37.3
      }
    ],
    "weather": {
      "clouds": 23,
      "humidity": 45,
      "condition": "Mainly Clear",
      "precip": 0.0
    },
    "updated_at": "09:41:39"
  },
  "Hong Kong": {
    "city": "Hong Kong",
    "metar_temp": 30,
    "metar_raw": "2026/07/07 06:30\nVHHH 070630Z VRB02KT 9999 VCSH FEW010 SCT025 30/25 Q1006 TEMPO 19015G25KT 2000 TSRA SHRA FEW008CB SCT020",
    "spread": 2.5,
    "models": [
      {
        "name": "GFS",
        "temp": 29.2
      },
      {
        "name": "ICON",
        "temp": 27.8
      },
      {
        "name": "GEM",
        "temp": 30.3
      }
    ],
    "weather": {
      "clouds": 100,
      "humidity": 91,
      "condition": "Thunderstorm",
      "precip": 0.7
    },
    "updated_at": "09:41:40"
  },
  "Shenzhen": {
    "city": "Shenzhen",
    "metar_temp": 26,
    "metar_raw": "2026/07/07 06:00\nZGSZ 070600Z 05003MPS 030V100 7000 TSRA FEW009 FEW020CB BKN043 26/25 Q1007 BECMG AT0640 -SHRA",
    "spread": 2.5,
    "models": [
      {
        "name": "GFS",
        "temp": 28.5
      },
      {
        "name": "ICON",
        "temp": 28.2
      },
      {
        "name": "GEM",
        "temp": 30.7
      }
    ],
    "weather": {
      "clouds": 98,
      "humidity": 91,
      "condition": "Thunderstorm",
      "precip": 0.4
    },
    "updated_at": "09:41:42"
  },
  "Beijing": {
    "city": "Beijing",
    "metar_temp": 29,
    "metar_raw": "2026/07/07 06:30\nZBAA 070630Z 11006G11MPS 060V160 9999 FEW050CB 29/22 Q0996 NOSIG",
    "spread": 8.1,
    "models": [
      {
        "name": "GFS",
        "temp": 36.1
      },
      {
        "name": "ICON",
        "temp": 31.4
      },
      {
        "name": "GEM",
        "temp": 28.0
      }
    ],
    "weather": {
      "clouds": 91,
      "humidity": 68,
      "condition": "Cloudy",
      "precip": 0.2
    },
    "updated_at": "09:41:43"
  },
  "Chongqing": {
    "city": "Chongqing",
    "metar_temp": 37,
    "metar_raw": "2026/07/07 06:00\nZUCK 070600Z 08004MPS 030V130 CAVOK 37/23 Q1000 NOSIG",
    "spread": 2.3,
    "models": [
      {
        "name": "GFS",
        "temp": 37.0
      },
      {
        "name": "ICON",
        "temp": 36.1
      },
      {
        "name": "GEM",
        "temp": 38.4
      }
    ],
    "weather": {
      "clouds": 98,
      "humidity": 50,
      "condition": "Drizzle",
      "precip": 0.1
    },
    "updated_at": "09:41:44"
  },
  "Taipei": {
    "city": "Taipei",
    "metar_temp": 34,
    "metar_raw": "2026/07/07 06:30\nRCTP 070630Z 29013KT 9999 FEW020 SCT200 34/25 Q1008 NOSIG RMK A2978",
    "spread": 1.7,
    "models": [
      {
        "name": "GFS",
        "temp": 32.8
      },
      {
        "name": "ICON",
        "temp": 32.3
      },
      {
        "name": "GEM",
        "temp": 31.1
      }
    ],
    "weather": {
      "clouds": 57,
      "humidity": 57,
      "condition": "Drizzle",
      "precip": 0.1
    },
    "updated_at": "09:41:45"
  },
  "Kuala Lumpur": {
    "city": "Kuala Lumpur",
    "metar_temp": 31,
    "metar_raw": "2026/07/07 06:30\nWMKK 070630Z 15004KT 060V220 9000 VCSH FEW017CB SCT018 31/26 Q1009 NOSIG",
    "spread": 5.9,
    "models": [
      {
        "name": "GFS",
        "temp": 32.8
      },
      {
        "name": "ICON",
        "temp": 32.2
      },
      {
        "name": "GEM",
        "temp": 26.9
      }
    ],
    "weather": {
      "clouds": 81,
      "humidity": 77,
      "condition": "Drizzle",
      "precip": 0.1
    },
    "updated_at": "09:41:47"
  },
  "Lucknow": {
    "city": "Lucknow",
    "metar_temp": 34,
    "metar_raw": "2026/07/07 06:00\nVILK 070600Z 08008G18KT 5000 HZ SCT020 BKN100 34/25 Q0998 NOSIG",
    "spread": 4.6,
    "models": [
      {
        "name": "GFS",
        "temp": 35.8
      },
      {
        "name": "ICON",
        "temp": 31.4
      },
      {
        "name": "GEM",
        "temp": 36.0
      }
    ],
    "weather": {
      "clouds": 88,
      "humidity": 66,
      "condition": "Overcast",
      "precip": 0.0
    },
    "updated_at": "09:41:48"
  },
  "Busan": {
    "city": "Busan",
    "metar_temp": 29,
    "metar_raw": "2026/07/07 06:00\nRKPK 070600Z 19011KT 9999 FEW005 SCT020 BKN030 29/26 Q1008",
    "spread": 2.3,
    "models": [
      {
        "name": "GFS",
        "temp": 29.4
      },
      {
        "name": "ICON",
        "temp": 27.1
      },
      {
        "name": "GEM",
        "temp": 27.8
      }
    ],
    "weather": {
      "clouds": 60,
      "humidity": 90,
      "condition": "Partly Cloudy",
      "precip": 0.0
    },
    "updated_at": "09:41:49"
  },
  "London": {
    "city": "London",
    "metar_temp": 19,
    "metar_raw": "2026/07/07 06:20\nEGLL 070620Z AUTO 26009KT 9999 NCD 19/10 Q1016",
    "spread": 0.8,
    "models": [
      {
        "name": "GFS",
        "temp": 20.0
      },
      {
        "name": "ICON",
        "temp": 19.2
      },
      {
        "name": "GEM",
        "temp": 19.7
      }
    ],
    "weather": {
      "clouds": 86,
      "humidity": 61,
      "condition": "Overcast",
      "precip": 0.0
    },
    "updated_at": "09:41:50"
  },
  "Paris": {
    "city": "Paris",
    "metar_temp": 24,
    "metar_raw": "2026/07/07 06:30\nLFPG 070630Z VRB03KT CAVOK 24/10 Q1018 NOSIG",
    "spread": 4.7,
    "models": [
      {
        "name": "GFS",
        "temp": 24.0
      },
      {
        "name": "ICON",
        "temp": 23.1
      },
      {
        "name": "GEM",
        "temp": 19.3
      }
    ],
    "weather": {
      "clouds": 47,
      "humidity": 45,
      "condition": "Partly Cloudy",
      "precip": 0.0
    },
    "updated_at": "09:41:52"
  },
  "Madrid": {
    "city": "Madrid",
    "metar_temp": 24,
    "metar_raw": "2026/07/07 06:30\nLEMD 070630Z 35003KT CAVOK 24/08 Q1021 NOSIG",
    "spread": 7.7,
    "models": [
      {
        "name": "GFS",
        "temp": 27.8
      },
      {
        "name": "ICON",
        "temp": 24.2
      },
      {
        "name": "GEM",
        "temp": 20.1
      }
    ],
    "weather": {
      "clouds": 42,
      "humidity": 40,
      "condition": "Partly Cloudy",
      "precip": 0.0
    },
    "updated_at": "09:41:53"
  },
  "Munich": {
    "city": "Munich",
    "metar_temp": 22,
    "metar_raw": "2026/07/07 06:20\nEDDM 070620Z AUTO 26009KT CAVOK 22/13 Q1018 NOSIG",
    "spread": 1.9,
    "models": [
      {
        "name": "GFS",
        "temp": 18.8
      },
      {
        "name": "ICON",
        "temp": 20.7
      },
      {
        "name": "GEM",
        "temp": 20.4
      }
    ],
    "weather": {
      "clouds": 96,
      "humidity": 53,
      "condition": "Overcast",
      "precip": 0.0
    },
    "updated_at": "09:41:54"
  },
  "Helsinki": {
    "city": "Helsinki",
    "metar_temp": 12,
    "metar_raw": "2026/07/07 06:20\nEFHK 070620Z 24008KT 8000 -DZ BKN007 12/11 Q0992 NOSIG",
    "spread": 1.4,
    "models": [
      {
        "name": "GFS",
        "temp": 11.1
      },
      {
        "name": "ICON",
        "temp": 12.1
      },
      {
        "name": "GEM",
        "temp": 12.5
      }
    ],
    "weather": {
      "clouds": 100,
      "humidity": 90,
      "condition": "Overcast",
      "precip": 0.0
    },
    "updated_at": "09:41:55"
  },
  "Moscow": {
    "city": "Moscow",
    "metar_temp": 16,
    "metar_raw": "2026/07/07 06:30\nUUEE 070630Z 23006MPS 9999 SCT014 16/13 Q1005 R24L/220157 R24C/220157 NOSIG",
    "spread": 1.1,
    "models": [
      {
        "name": "GFS",
        "temp": 17.6
      },
      {
        "name": "ICON",
        "temp": 16.5
      },
      {
        "name": "GEM",
        "temp": 16.5
      }
    ],
    "weather": {
      "clouds": 90,
      "humidity": 76,
      "condition": "Showers",
      "precip": 0.1
    },
    "updated_at": "09:41:56"
  },
  "NYC": {
    "city": "NYC",
    "metar_temp": 18,
    "metar_raw": "2026/07/07 05:51\nKJFK 070551Z 03011KT 3SM OVC005 18/18 A3003 RMK SLP170 60000T01830178 10194 20183 55008 $",
    "spread": 1.3,
    "models": [
      {
        "name": "GFS",
        "temp": 18.5
      },
      {
        "name": "ICON",
        "temp": 19.8
      },
      {
        "name": "GEM",
        "temp": 19.7
      }
    ],
    "weather": {
      "clouds": 100,
      "humidity": 95,
      "condition": "Overcast",
      "precip": 0.0
    },
    "updated_at": "09:41:58"
  },
  "Mexico City": {
    "city": "Mexico City",
    "metar_temp": 16,
    "metar_raw": "2026/07/07 05:53\nMMMX 070553Z 30005KT 10SM FEW100 BKN250 16/12 A3037 NOSIG RMK SLP123 52015 904 8/038 HZY",
    "spread": 2.5,
    "models": [
      {
        "name": "GFS",
        "temp": 17.0
      },
      {
        "name": "ICON",
        "temp": 16.6
      },
      {
        "name": "GEM",
        "temp": 14.5
      }
    ],
    "weather": {
      "clouds": 100,
      "humidity": 88,
      "condition": "Overcast",
      "precip": 0.0
    },
    "updated_at": "09:41:59"
  },
  "San Francisco": {
    "city": "San Francisco",
    "metar_temp": 14,
    "metar_raw": "2026/07/07 05:56\nKSFO 070556Z 27012KT 10SM FEW004 BKN007 OVC011 14/12 A3002 RMK AO2 SLP165 T01390117 10178 20133 52009 $",
    "spread": 0.8,
    "models": [
      {
        "name": "GFS",
        "temp": 12.3
      },
      {
        "name": "ICON",
        "temp": 13.1
      },
      {
        "name": "GEM",
        "temp": 12.9
      }
    ],
    "weather": {
      "clouds": 91,
      "humidity": 97,
      "condition": "Overcast",
      "precip": 0.0
    },
    "updated_at": "09:42:00"
  },
  "Panama": {
    "city": "Panama",
    "metar_temp": 26,
    "metar_raw": "2026/07/07 06:00\nMPTO 070600Z 29003KT 240V310 9999 FEW018 26/24 Q1009 NOSIG",
    "spread": 2.4,
    "models": [
      {
        "name": "GFS",
        "temp": 24.8
      },
      {
        "name": "ICON",
        "temp": 27.2
      },
      {
        "name": "GEM",
        "temp": 27.1
      }
    ],
    "weather": {
      "clouds": 69,
      "humidity": 89,
      "condition": "Partly Cloudy",
      "precip": 0.0
    },
    "updated_at": "09:42:01"
  }
}