{
  "London": {
    "city": "London",
    "metar_temp": 28,
    "metar_raw": "METAR (EGLC): EGLC 071220Z AUTO 27011KT 230V320 9999 NCD 28/12 Q1016",
    "spread": 2.2,
    "models": [
      {
        "name": "GFS",
        "temp": 29.9
      },
      {
        "name": "ICON",
        "temp": 27.7
      },
      {
        "name": "GEM",
        "temp": 27.7
      }
    ],
    "weather": {
      "clouds": 9,
      "humidity": 29,
      "condition": "Clear",
      "local_time": "13:40"
    },
    "cutoff": "22:00",
    "region": "EUROPE",
    "updated_at": "15:40:49"
  },
  "Paris": {
    "city": "Paris",
    "metar_temp": 32,
    "metar_raw": "METAR (LFPG): LFPG 071230Z 28010KT 240V330 CAVOK 32/10 Q1017 NOSIG",
    "spread": 2.1,
    "models": [
      {
        "name": "GFS",
        "temp": 33.6
      },
      {
        "name": "ICON",
        "temp": 32.1
      },
      {
        "name": "GEM",
        "temp": 31.5
      }
    ],
    "weather": {
      "clouds": 100,
      "humidity": 24,
      "condition": "Overcast",
      "local_time": "14:40"
    },
    "cutoff": "21:00",
    "region": "EUROPE",
    "updated_at": "15:40:50"
  },
  "Madrid": {
    "city": "Madrid",
    "metar_temp": 38,
    "metar_raw": "METAR (LEMD): LEMD 071230Z 21006G20KT 130V280 CAVOK 38/08 Q1019 NOSIG",
    "spread": 1.3,
    "models": [
      {
        "name": "GFS",
        "temp": 36.7
      },
      {
        "name": "ICON",
        "temp": 37.3
      },
      {
        "name": "GEM",
        "temp": 38.0
      }
    ],
    "weather": {
      "clouds": 6,
      "humidity": 17,
      "condition": "Clear",
      "local_time": "14:40"
    },
    "cutoff": "21:00",
    "region": "EUROPE",
    "updated_at": "15:40:52"
  },
  "Ankara": {
    "city": "Ankara",
    "metar_temp": 28,
    "metar_raw": "METAR (LTAC): LTAC 071220Z VRB05KT 9999 SCT040 SCT100 28/09 Q1015 NOSIG",
    "spread": 0.7,
    "models": [
      {
        "name": "GFS",
        "temp": 27.3
      },
      {
        "name": "ICON",
        "temp": 26.6
      },
      {
        "name": "GEM",
        "temp": 27.1
      }
    ],
    "weather": {
      "clouds": 41,
      "humidity": 31,
      "condition": "Partly Cloudy",
      "local_time": "15:40"
    },
    "cutoff": "18:00",
    "region": "EUROPE",
    "updated_at": "15:40:53"
  },
  "Istanbul": {
    "city": "Istanbul",
    "metar_temp": 27,
    "metar_raw": "METAR (LTFM): LTFM 071220Z 06011KT 020V090 CAVOK 27/14 Q1015 NOSIG",
    "spread": 0.8,
    "models": [
      {
        "name": "GFS",
        "temp": 27.4
      },
      {
        "name": "ICON",
        "temp": 27.0
      },
      {
        "name": "GEM",
        "temp": 27.8
      }
    ],
    "weather": {
      "clouds": 0,
      "humidity": 51,
      "condition": "Clear",
      "local_time": "15:40"
    },
    "cutoff": "18:00",
    "region": "EUROPE",
    "updated_at": "15:40:54"
  },
  "Helsinki": {
    "city": "Helsinki",
    "metar_temp": 15,
    "metar_raw": "METAR (EFHK): EFHK 071220Z 26009KT 9999 -SHRA SCT015 FEW030CB 15/12 Q0995 NOSIG",
    "spread": 1.4,
    "models": [
      {
        "name": "GFS",
        "temp": 15.7
      },
      {
        "name": "ICON",
        "temp": 15.0
      },
      {
        "name": "GEM",
        "temp": 14.3
      }
    ],
    "weather": {
      "clouds": 99,
      "humidity": 86,
      "condition": "Overcast",
      "local_time": "15:40"
    },
    "cutoff": "20:00",
    "region": "EUROPE",
    "updated_at": "15:40:56"
  },
  "Moscow": {
    "city": "Moscow",
    "metar_temp": 17,
    "metar_raw": "METAR (UUEE): UUEE 071230Z 24007MPS 9999 -SHRA SCT043CB 17/11 Q1006 R24L/220157 R24C/220157 NOSIG",
    "spread": 1.9,
    "models": [
      {
        "name": "GFS",
        "temp": 18.8
      },
      {
        "name": "ICON",
        "temp": 16.9
      },
      {
        "name": "GEM",
        "temp": 17.9
      }
    ],
    "weather": {
      "clouds": 100,
      "humidity": 72,
      "condition": "Rain",
      "local_time": "15:40"
    },
    "cutoff": "17:30",
    "region": "EUROPE",
    "updated_at": "15:40:57"
  },
  "Rome": {
    "city": "Rome",
    "metar_temp": 30,
    "metar_raw": "METAR (LIRF): LIRF 071220Z 23012KT CAVOK 30/20 Q1017 NOSIG",
    "spread": 1.7,
    "models": [
      {
        "name": "GFS",
        "temp": 29.1
      },
      {
        "name": "ICON",
        "temp": 29.3
      },
      {
        "name": "GEM",
        "temp": 30.8
      }
    ],
    "weather": {
      "clouds": 10,
      "humidity": 63,
      "condition": "Clear",
      "local_time": "14:40"
    },
    "cutoff": "19:00",
    "region": "EUROPE",
    "updated_at": "15:40:58"
  },
  "Berlin": {
    "city": "Berlin",
    "metar_temp": 24,
    "metar_raw": "METAR (EDDB): EDDB 071220Z AUTO 26018KT CAVOK 24/14 Q1007 TEMPO 27015G25KT",
    "spread": 1.7,
    "models": [
      {
        "name": "GFS",
        "temp": 23.2
      },
      {
        "name": "ICON",
        "temp": 22.0
      },
      {
        "name": "GEM",
        "temp": 21.5
      }
    ],
    "weather": {
      "clouds": 96,
      "humidity": 56,
      "condition": "Overcast",
      "local_time": "14:40"
    },
    "cutoff": "19:00",
    "region": "EUROPE",
    "updated_at": "15:40:59"
  },
  "Munich": {
    "city": "Munich",
    "metar_temp": 30,
    "metar_raw": "METAR (EDDM): EDDM 071220Z AUTO 26018G31KT 230V290 CAVOK 30/12 Q1016 NOSIG",
    "spread": 3.1,
    "models": [
      {
        "name": "GFS",
        "temp": 26.6
      },
      {
        "name": "ICON",
        "temp": 29.1
      },
      {
        "name": "GEM",
        "temp": 26.0
      }
    ],
    "weather": {
      "clouds": 100,
      "humidity": 29,
      "condition": "Overcast",
      "local_time": "14:40"
    },
    "cutoff": "19:30",
    "region": "EUROPE",
    "updated_at": "15:41:00"
  },
  "Amsterdam": {
    "city": "Amsterdam",
    "metar_temp": 22,
    "metar_raw": "METAR (EHAM): EHAM 071225Z 29019KT 9999 FEW028 22/13 Q1014 NOSIG",
    "spread": 1.6,
    "models": [
      {
        "name": "GFS",
        "temp": 23.6
      },
      {
        "name": "ICON",
        "temp": 22.1
      },
      {
        "name": "GEM",
        "temp": 22.0
      }
    ],
    "weather": {
      "clouds": 92,
      "humidity": 53,
      "condition": "Overcast",
      "local_time": "14:41"
    },
    "cutoff": "20:00",
    "region": "EUROPE",
    "updated_at": "15:41:02"
  },
  "Vienna": {
    "city": "Vienna",
    "metar_temp": 30,
    "metar_raw": "METAR (LOWW): LOWW 071220Z 28020G34KT CAVOK 30/09 Q1013 NOSIG",
    "spread": 2.9,
    "models": [
      {
        "name": "GFS",
        "temp": 29.8
      },
      {
        "name": "ICON",
        "temp": 31.4
      },
      {
        "name": "GEM",
        "temp": 28.5
      }
    ],
    "weather": {
      "clouds": 72,
      "humidity": 28,
      "condition": "Overcast",
      "local_time": "14:41"
    },
    "cutoff": "19:30",
    "region": "EUROPE",
    "updated_at": "15:41:03"
  },
  "Prague": {
    "city": "Prague",
    "metar_temp": 25,
    "metar_raw": "METAR (LKPR): LKPR 071230Z 27015G25KT CAVOK 25/10 Q1012 NOSIG",
    "spread": 1.5,
    "models": [
      {
        "name": "GFS",
        "temp": 23.5
      },
      {
        "name": "ICON",
        "temp": 25.0
      },
      {
        "name": "GEM",
        "temp": 24.4
      }
    ],
    "weather": {
      "clouds": 99,
      "humidity": 37,
      "condition": "Overcast",
      "local_time": "14:41"
    },
    "cutoff": "19:30",
    "region": "EUROPE",
    "updated_at": "15:41:05"
  },
  "Warsaw": {
    "city": "Warsaw",
    "metar_temp": 18,
    "metar_raw": "METAR (EPWA): EPWA 071230Z 22009KT 9999 FEW036CB BKN044 18/16 Q1006 NOSIG",
    "spread": 0.4,
    "models": [
      {
        "name": "GFS",
        "temp": 17.7
      },
      {
        "name": "ICON",
        "temp": 17.4
      },
      {
        "name": "GEM",
        "temp": 17.8
      }
    ],
    "weather": {
      "clouds": 100,
      "humidity": 90,
      "condition": "Cloudy",
      "local_time": "14:41"
    },
    "cutoff": "19:00",
    "region": "EUROPE",
    "updated_at": "15:41:06"
  },
  "Stockholm": {
    "city": "Stockholm",
    "metar_temp": 17,
    "metar_raw": "METAR (ESSA): ESSA 071220Z 17004KT 130V230 CAVOK 17/03 Q0995 NOSIG",
    "spread": 0.5,
    "models": [
      {
        "name": "GFS",
        "temp": 19.5
      },
      {
        "name": "ICON",
        "temp": 19.0
      },
      {
        "name": "GEM",
        "temp": 19.3
      }
    ],
    "weather": {
      "clouds": 91,
      "humidity": 34,
      "condition": "Overcast",
      "local_time": "14:41"
    },
    "cutoff": "19:30",
    "region": "EUROPE",
    "updated_at": "15:41:07"
  },
  "Oslo": {
    "city": "Oslo",
    "metar_temp": 11,
    "metar_raw": "METAR (ENGM): ENGM 071220Z 03018G29KT 9999 VCSH SCT023 BKN049 11/06 Q0998 NOSIG",
    "spread": 0.9,
    "models": [
      {
        "name": "GFS",
        "temp": 12.8
      },
      {
        "name": "ICON",
        "temp": 12.6
      },
      {
        "name": "GEM",
        "temp": 13.5
      }
    ],
    "weather": {
      "clouds": 90,
      "humidity": 64,
      "condition": "Overcast",
      "local_time": "14:41"
    },
    "cutoff": "20:00",
    "region": "EUROPE",
    "updated_at": "15:41:08"
  },
  "Athens": {
    "city": "Athens",
    "metar_temp": 32,
    "metar_raw": "METAR (LGAV): LGAV 071220Z 06013KT 030V090 9999 SCT025 32/11 Q1015 NOSIG",
    "spread": 2.5,
    "models": [
      {
        "name": "GFS",
        "temp": 32.3
      },
      {
        "name": "ICON",
        "temp": 30.9
      },
      {
        "name": "GEM",
        "temp": 29.8
      }
    ],
    "weather": {
      "clouds": 23,
      "humidity": 34,
      "condition": "Clear",
      "local_time": "15:41"
    },
    "cutoff": "18:00",
    "region": "EUROPE",
    "updated_at": "15:41:10"
  },
  "Lisbon": {
    "city": "Lisbon",
    "metar_temp": 30,
    "metar_raw": "METAR (LPPT): LPPT 071230Z 06004KT 340V130 CAVOK 30/17 Q1019 NOSIG",
    "spread": 3.0,
    "models": [
      {
        "name": "GFS",
        "temp": 32.1
      },
      {
        "name": "ICON",
        "temp": 29.1
      },
      {
        "name": "GEM",
        "temp": 30.2
      }
    ],
    "weather": {
      "clouds": 2,
      "humidity": 45,
      "condition": "Clear",
      "local_time": "13:41"
    },
    "cutoff": "22:00",
    "region": "EUROPE",
    "updated_at": "15:41:11"
  },
  "Dublin": {
    "city": "Dublin",
    "metar_temp": 23,
    "metar_raw": "METAR (EIDW): EIDW 071230Z 28010KT 210V300 9999 FEW018 23/14 Q1018 NOSIG",
    "spread": 2.0,
    "models": [
      {
        "name": "GFS",
        "temp": 22.7
      },
      {
        "name": "ICON",
        "temp": 20.7
      },
      {
        "name": "GEM",
        "temp": 22.6
      }
    ],
    "weather": {
      "clouds": 59,
      "humidity": 57,
      "condition": "Partly Cloudy",
      "local_time": "13:41"
    },
    "cutoff": "22:00",
    "region": "EUROPE",
    "updated_at": "15:41:12"
  }
}