{
  "Guangzhou": {
    "city": "Guangzhou",
    "metar_temp": 30,
    "metar_raw": "METAR (ZGGG): ZGGG 070800Z 14004MPS 9999 -SHRA SCT020 BKN040 30/25 Q1005 NOSIG",
    "spread": 3.5,
    "models": [
      {
        "name": "GFS",
        "temp": 26.0
      },
      {
        "name": "ICON",
        "temp": 29.5
      },
      {
        "name": "GEM",
        "temp": 26.2
      }
    ],
    "weather": {
      "clouds": 100,
      "humidity": 87,
      "condition": "Cloudy"
    },
    "updated_at": "11:34:51"
  },
  "Chengdu": {
    "city": "Chengdu",
    "metar_temp": 36,
    "metar_raw": "METAR (ZUUU): ZUUU 070800Z VRB02MPS 9999 FEW023 36/23 Q0999 NOSIG",
    "spread": 2.1,
    "models": [
      {
        "name": "GFS",
        "temp": 34.3
      },
      {
        "name": "ICON",
        "temp": 36.4
      },
      {
        "name": "GEM",
        "temp": 36.2
      }
    ],
    "weather": {
      "clouds": 43,
      "humidity": 68,
      "condition": "Cloudy"
    },
    "updated_at": "11:34:52"
  },
  "Hong Kong": {
    "city": "Hong Kong",
    "metar_temp": 28,
    "metar_raw": "OFFICIAL HKO STATION (TST)",
    "spread": 1.9,
    "models": [
      {
        "name": "GFS",
        "temp": 29.2
      },
      {
        "name": "ICON",
        "temp": 28.1
      },
      {
        "name": "GEM",
        "temp": 30.0
      }
    ],
    "weather": {
      "clouds": 100,
      "humidity": 88,
      "condition": "Overcast"
    },
    "updated_at": "11:34:56"
  },
  "Shenzhen": {
    "city": "Shenzhen",
    "metar_temp": 28,
    "metar_raw": "METAR (ZGSZ): ZGSZ 070800Z 03002MPS 350V130 9999 -SHRA FEW015 FEW020CB BKN043 28/26 Q1005 NOSIG",
    "spread": 1.9,
    "models": [
      {
        "name": "GFS",
        "temp": 30.0
      },
      {
        "name": "ICON",
        "temp": 28.5
      },
      {
        "name": "GEM",
        "temp": 30.4
      }
    ],
    "weather": {
      "clouds": 100,
      "humidity": 85,
      "condition": "Cloudy"
    },
    "updated_at": "11:34:57"
  },
  "Beijing": {
    "city": "Beijing",
    "metar_temp": 25,
    "metar_raw": "METAR (ZBAA): ZBAA 070800Z 14006MPS 110V180 9999 -TSRA FEW033CB 25/22 Q0997 BECMG AT0840 35009G15MPS TSRA",
    "spread": 3.6,
    "models": [
      {
        "name": "GFS",
        "temp": 30.1
      },
      {
        "name": "ICON",
        "temp": 30.7
      },
      {
        "name": "GEM",
        "temp": 27.1
      }
    ],
    "weather": {
      "clouds": 89,
      "humidity": 77,
      "condition": "Cloudy"
    },
    "updated_at": "11:34:58"
  },
  "Chongqing": {
    "city": "Chongqing",
    "metar_temp": 36,
    "metar_raw": "METAR (ZUCK): ZUCK 070800Z 08002MPS 030V130 9999 SCT036 36/23 Q0998 NOSIG",
    "spread": 1.6,
    "models": [
      {
        "name": "GFS",
        "temp": 37.2
      },
      {
        "name": "ICON",
        "temp": 37.1
      },
      {
        "name": "GEM",
        "temp": 38.7
      }
    ],
    "weather": {
      "clouds": 100,
      "humidity": 46,
      "condition": "Overcast"
    },
    "updated_at": "11:35:00"
  },
  "Taipei": {
    "city": "Taipei",
    "metar_temp": 34,
    "metar_raw": "METAR (RCTP): RCTP 070800Z 28012KT 9999 FEW020 SCT060 34/23 Q1008 NOSIG RMK A2977",
    "spread": 2.1,
    "models": [
      {
        "name": "GFS",
        "temp": 32.3
      },
      {
        "name": "ICON",
        "temp": 30.2
      },
      {
        "name": "GEM",
        "temp": 30.3
      }
    ],
    "weather": {
      "clouds": 33,
      "humidity": 62,
      "condition": "Clear"
    },
    "updated_at": "11:35:01"
  },
  "Kuala Lumpur": {
    "city": "Kuala Lumpur",
    "metar_temp": 32,
    "metar_raw": "METAR (WMKK): WMKK 070800Z 14006KT 050V190 9999 FEW017CB 32/25 Q1008 NOSIG",
    "spread": 2.9,
    "models": [
      {
        "name": "GFS",
        "temp": 29.9
      },
      {
        "name": "ICON",
        "temp": 31.6
      },
      {
        "name": "GEM",
        "temp": 28.7
      }
    ],
    "weather": {
      "clouds": 95,
      "humidity": 78,
      "condition": "Cloudy"
    },
    "updated_at": "11:35:02"
  },
  "Lucknow": {
    "city": "Lucknow",
    "metar_temp": 33,
    "metar_raw": "METAR (VILK): VILK 070830Z 10010G20KT 5000 HZ SCT020 BKN100 33/25 Q0995 NOSIG",
    "spread": 6.8,
    "models": [
      {
        "name": "GFS",
        "temp": 36.9
      },
      {
        "name": "ICON",
        "temp": 30.2
      },
      {
        "name": "GEM",
        "temp": 30.1
      }
    ],
    "weather": {
      "clouds": 70,
      "humidity": 68,
      "condition": "Thunderstorm"
    },
    "updated_at": "11:35:04"
  },
  "Busan": {
    "city": "Busan",
    "metar_temp": 27,
    "metar_raw": "METAR (RKPK): RKPK 070803Z 21009KT 9999 SCT005 BKN030 27/25 Q1008 RMK CIG030",
    "spread": 1.7,
    "models": [
      {
        "name": "GFS",
        "temp": 28.0
      },
      {
        "name": "ICON",
        "temp": 26.3
      },
      {
        "name": "GEM",
        "temp": 27.0
      }
    ],
    "weather": {
      "clouds": 90,
      "humidity": 94,
      "condition": "Overcast"
    },
    "updated_at": "11:35:05"
  },
  "London": {
    "city": "London",
    "metar_temp": 22,
    "metar_raw": "METAR (EGLL): EGLL 070820Z AUTO 28010KT 9999 NCD 22/12 Q1016",
    "spread": 2.8,
    "models": [
      {
        "name": "GFS",
        "temp": 23.7
      },
      {
        "name": "ICON",
        "temp": 20.9
      },
      {
        "name": "GEM",
        "temp": 23.0
      }
    ],
    "weather": {
      "clouds": 21,
      "humidity": 55,
      "condition": "Clear"
    },
    "updated_at": "11:35:06"
  },
  "Paris": {
    "city": "Paris",
    "metar_temp": 28,
    "metar_raw": "METAR (LFPG): LFPG 070830Z 30008KT CAVOK 28/09 Q1018 NOSIG",
    "spread": 1.8,
    "models": [
      {
        "name": "GFS",
        "temp": 27.1
      },
      {
        "name": "ICON",
        "temp": 27.0
      },
      {
        "name": "GEM",
        "temp": 25.3
      }
    ],
    "weather": {
      "clouds": 85,
      "humidity": 35,
      "condition": "Overcast"
    },
    "updated_at": "11:35:08"
  },
  "Madrid": {
    "city": "Madrid",
    "metar_temp": 29,
    "metar_raw": "METAR (LEMD): LEMD 070830Z 10002KT CAVOK 29/08 Q1021 NOSIG",
    "spread": 2.3,
    "models": [
      {
        "name": "GFS",
        "temp": 29.7
      },
      {
        "name": "ICON",
        "temp": 28.7
      },
      {
        "name": "GEM",
        "temp": 27.4
      }
    ],
    "weather": {
      "clouds": 48,
      "humidity": 26,
      "condition": "Partly Cloudy"
    },
    "updated_at": "11:35:09"
  },
  "Munich": {
    "city": "Munich",
    "metar_temp": 27,
    "metar_raw": "METAR (EDDM): EDDM 070820Z AUTO 26016KT CAVOK 27/12 Q1018 BECMG 26015G25KT",
    "spread": 1.0,
    "models": [
      {
        "name": "GFS",
        "temp": 23.9
      },
      {
        "name": "ICON",
        "temp": 24.7
      },
      {
        "name": "GEM",
        "temp": 23.7
      }
    ],
    "weather": {
      "clouds": 73,
      "humidity": 39,
      "condition": "Partly Cloudy"
    },
    "updated_at": "11:35:10"
  },
  "Helsinki": {
    "city": "Helsinki",
    "metar_temp": 12,
    "metar_raw": "METAR (EFHK): EFHK 070820Z 28008KT 9999 -SHRA FEW009 SCT030 FEW031CB 12/12 Q0993 TEMPO FEW009 SCT030",
    "spread": 2.5,
    "models": [
      {
        "name": "GFS",
        "temp": 11.7
      },
      {
        "name": "ICON",
        "temp": 13.0
      },
      {
        "name": "GEM",
        "temp": 14.2
      }
    ],
    "weather": {
      "clouds": 100,
      "humidity": 92,
      "condition": "Cloudy"
    },
    "updated_at": "11:35:12"
  },
  "Moscow": {
    "city": "Moscow",
    "metar_temp": 19,
    "metar_raw": "METAR (UUEE): UUEE 070830Z 22008MPS 9999 SCT024 19/13 Q1005 R24L/220157 R24C/220157 NOSIG",
    "spread": 1.3,
    "models": [
      {
        "name": "GFS",
        "temp": 18.6
      },
      {
        "name": "ICON",
        "temp": 17.6
      },
      {
        "name": "GEM",
        "temp": 17.3
      }
    ],
    "weather": {
      "clouds": 100,
      "humidity": 69,
      "condition": "Cloudy"
    },
    "updated_at": "11:35:13"
  },
  "NYC": {
    "city": "NYC",
    "metar_temp": 18,
    "metar_raw": "METAR (KJFK): KJFK 070751Z 05010KT 5SM BR OVC005 18/17 A3002 RMK SLP165 T01780172 $",
    "spread": 1.6,
    "models": [
      {
        "name": "GFS",
        "temp": 18.7
      },
      {
        "name": "ICON",
        "temp": 19.8
      },
      {
        "name": "GEM",
        "temp": 20.3
      }
    ],
    "weather": {
      "clouds": 100,
      "humidity": 96,
      "condition": "Fog"
    },
    "updated_at": "11:35:14"
  },
  "Mexico City": {
    "city": "Mexico City",
    "metar_temp": 15,
    "metar_raw": "METAR (MMMX): MMMX 070741Z 29005KT 9SM SCT100 BKN250 15/11 A3035 NOSIG RMK 8/038 HZY",
    "spread": 3.5,
    "models": [
      {
        "name": "GFS",
        "temp": 15.9
      },
      {
        "name": "ICON",
        "temp": 16.3
      },
      {
        "name": "GEM",
        "temp": 12.8
      }
    ],
    "weather": {
      "clouds": 100,
      "humidity": 90,
      "condition": "Overcast"
    },
    "updated_at": "11:35:16"
  },
  "San Francisco": {
    "city": "San Francisco",
    "metar_temp": 13,
    "metar_raw": "METAR (KSFO): KSFO 070756Z 26009G14KT 10SM FEW004 BKN007 OVC010 13/12 A3001 RMK AO2 SLP162 T01330117 402000133 $",
    "spread": 0.3,
    "models": [
      {
        "name": "GFS",
        "temp": 12.6
      },
      {
        "name": "ICON",
        "temp": 12.8
      },
      {
        "name": "GEM",
        "temp": 12.9
      }
    ],
    "weather": {
      "clouds": 100,
      "humidity": 96,
      "condition": "Overcast"
    },
    "updated_at": "11:35:17"
  },
  "Panama": {
    "city": "Panama",
    "metar_temp": 26,
    "metar_raw": "METAR (MPTO): MPTO 070800Z 25003KT 9999 FEW018 26/24 Q1009 NOSIG",
    "spread": 2.3,
    "models": [
      {
        "name": "GFS",
        "temp": 24.8
      },
      {
        "name": "ICON",
        "temp": 27.0
      },
      {
        "name": "GEM",
        "temp": 27.1
      }
    ],
    "weather": {
      "clouds": 26,
      "humidity": 89,
      "condition": "Clear"
    },
    "updated_at": "11:35:18"
  }
}