{
  "Wellington": {
    "city": "Wellington",
    "metar_temp": 12,
    "metar_raw": "METAR (NZWN): NZWN 071100Z AUTO 15027KT 6000 -RA FEW008/// BKN012/// BKN020/// 12/11 Q1004",
    "spread": 0.6,
    "models": [
      {
        "name": "GFS",
        "temp": 11.1
      },
      {
        "name": "ICON",
        "temp": 11.7
      },
      {
        "name": "GEM",
        "temp": 11.4
      }
    ],
    "weather": {
      "clouds": 100,
      "humidity": 88,
      "condition": "Overcast",
      "local_time": "23:14"
    },
    "cutoff": "07:00",
    "region": "ASIA",
    "updated_at": "14:14:08"
  },
  "Busan": {
    "city": "Busan",
    "metar_temp": 25,
    "metar_raw": "METAR (RKPK): RKPK 071100Z 17007KT 4800 BR SCT002 BKN003 BKN030 25/24 Q1008",
    "spread": 0.4,
    "models": [
      {
        "name": "GFS",
        "temp": 24.9
      },
      {
        "name": "ICON",
        "temp": 25.0
      },
      {
        "name": "GEM",
        "temp": 25.3
      }
    ],
    "weather": {
      "clouds": 66,
      "humidity": 97,
      "condition": "Partly Cloudy",
      "local_time": "20:14"
    },
    "cutoff": "11:30",
    "region": "ASIA",
    "updated_at": "14:14:09"
  },
  "Seoul": {
    "city": "Seoul",
    "metar_temp": 27,
    "metar_raw": "METAR (RKSI): RKSI 071100Z 05005KT 9999 SCT045 BKN200 27/25 Q1004 NOSIG",
    "spread": 5.4,
    "models": [
      {
        "name": "GFS",
        "temp": 22.8
      },
      {
        "name": "ICON",
        "temp": 28.2
      },
      {
        "name": "GEM",
        "temp": 24.0
      }
    ],
    "weather": {
      "clouds": 86,
      "humidity": 95,
      "condition": "Overcast",
      "local_time": "20:14"
    },
    "cutoff": "11:30",
    "region": "ASIA",
    "updated_at": "14:14:11"
  },
  "Tokyo": {
    "city": "Tokyo",
    "metar_temp": 24,
    "metar_raw": "METAR (RJTT): RJTT 071100Z 08006KT 9999 FEW012 BKN050 24/20 Q1014 NOSIG",
    "spread": 1.1,
    "models": [
      {
        "name": "GFS",
        "temp": 24.6
      },
      {
        "name": "ICON",
        "temp": 23.6
      },
      {
        "name": "GEM",
        "temp": 23.5
      }
    ],
    "weather": {
      "clouds": 49,
      "humidity": 77,
      "condition": "Clear",
      "local_time": "20:14"
    },
    "cutoff": "09:30",
    "region": "ASIA",
    "updated_at": "14:14:12"
  },
  "Chengdu": {
    "city": "Chengdu",
    "metar_temp": 33,
    "metar_raw": "METAR (ZUUU): ZUUU 071100Z 25005MPS 9999 FEW026TCU FEW026 33/22 Q1000 BECMG TL1130 FEW026CB FEW026",
    "spread": 5.6,
    "models": [
      {
        "name": "GFS",
        "temp": 32.7
      },
      {
        "name": "ICON",
        "temp": 30.4
      },
      {
        "name": "GEM",
        "temp": 36.0
      }
    ],
    "weather": {
      "clouds": 41,
      "humidity": 60,
      "condition": "Clear",
      "local_time": "19:14"
    },
    "cutoff": "15:30",
    "region": "ASIA",
    "updated_at": "14:14:13"
  },
  "Shenzhen": {
    "city": "Shenzhen",
    "metar_temp": 26,
    "metar_raw": "METAR (ZGSZ): ZGSZ 071100Z 01002MPS 9999 FEW015 BKN040 26/25 Q1006 BECMG AT1150 SHRA FEW020CB BKN040",
    "spread": 2.0,
    "models": [
      {
        "name": "GFS",
        "temp": 27.8
      },
      {
        "name": "ICON",
        "temp": 28.1
      },
      {
        "name": "GEM",
        "temp": 26.1
      }
    ],
    "weather": {
      "clouds": 80,
      "humidity": 89,
      "condition": "Overcast",
      "local_time": "19:14"
    },
    "cutoff": "11:30",
    "region": "ASIA",
    "updated_at": "14:14:14"
  },
  "Beijing": {
    "city": "Beijing",
    "metar_temp": 23,
    "metar_raw": "METAR (ZBAA): ZBAA 071100Z 01003MPS CAVOK 23/22 Q1000 BECMG AT1140 TS",
    "spread": 3.1,
    "models": [
      {
        "name": "GFS",
        "temp": 24.8
      },
      {
        "name": "ICON",
        "temp": 26.0
      },
      {
        "name": "GEM",
        "temp": 22.9
      }
    ],
    "weather": {
      "clouds": 80,
      "humidity": 86,
      "condition": "Overcast",
      "local_time": "19:14"
    },
    "cutoff": "14:30",
    "region": "ASIA",
    "updated_at": "14:14:16"
  },
  "Wuhan": {
    "city": "Wuhan",
    "metar_temp": 30,
    "metar_raw": "METAR (ZHHH): ZHHH 071100Z 23002MPS 9999 FEW026 30/28 Q1000 NOSIG",
    "spread": 1.0,
    "models": [
      {
        "name": "GFS",
        "temp": 28.5
      },
      {
        "name": "ICON",
        "temp": 29.0
      },
      {
        "name": "GEM",
        "temp": 29.5
      }
    ],
    "weather": {
      "clouds": 34,
      "humidity": 94,
      "condition": "Cloudy",
      "local_time": "19:14"
    },
    "cutoff": "15:00",
    "region": "ASIA",
    "updated_at": "14:14:17"
  },
  "Chongqing": {
    "city": "Chongqing",
    "metar_temp": 35,
    "metar_raw": "METAR (ZUCK): ZUCK 071100Z 08003MPS 9999 FEW036TCU SCT036 35/22 Q0999 NOSIG",
    "spread": 3.5,
    "models": [
      {
        "name": "GFS",
        "temp": 31.7
      },
      {
        "name": "ICON",
        "temp": 33.6
      },
      {
        "name": "GEM",
        "temp": 35.2
      }
    ],
    "weather": {
      "clouds": 48,
      "humidity": 71,
      "condition": "Clear",
      "local_time": "19:14"
    },
    "cutoff": "22:00",
    "region": "ASIA",
    "updated_at": "14:14:18"
  },
  "Taipei": {
    "city": "Taipei",
    "metar_temp": 30,
    "metar_raw": "METAR (RCTP): RCTP 071100Z 24010KT 9999 FEW020 30/23 Q1007 NOSIG RMK A2976",
    "spread": 0.2,
    "models": [
      {
        "name": "GFS",
        "temp": 29.2
      },
      {
        "name": "ICON",
        "temp": 29.2
      },
      {
        "name": "GEM",
        "temp": 29.0
      }
    ],
    "weather": {
      "clouds": 27,
      "humidity": 78,
      "condition": "Clear",
      "local_time": "19:14"
    },
    "cutoff": "11:30",
    "region": "ASIA",
    "updated_at": "14:14:19"
  },
  "Singapore": {
    "city": "Singapore",
    "metar_temp": 29,
    "metar_raw": "METAR (WSSS): WSSS 071100Z 11010KT 9999 FEW016 FEW018TCU SCT060 29/24 Q1010 NOSIG",
    "spread": 0.2,
    "models": [
      {
        "name": "GFS",
        "temp": 29.8
      },
      {
        "name": "ICON",
        "temp": 29.8
      },
      {
        "name": "GEM",
        "temp": 30.0
      }
    ],
    "weather": {
      "clouds": 65,
      "humidity": 66,
      "condition": "Cloudy",
      "local_time": "19:14"
    },
    "cutoff": "14:30",
    "region": "ASIA",
    "updated_at": "14:14:20"
  },
  "Hong Kong": {
    "city": "Hong Kong",
    "metar_temp": 27,
    "metar_raw": "OFFICIAL HKO STATION (TST)",
    "spread": 0.8,
    "models": [
      {
        "name": "GFS",
        "temp": 27.5
      },
      {
        "name": "ICON",
        "temp": 27.9
      },
      {
        "name": "GEM",
        "temp": 27.1
      }
    ],
    "weather": {
      "clouds": 98,
      "humidity": 91,
      "condition": "Cloudy",
      "local_time": "19:14"
    },
    "cutoff": "11:30",
    "region": "ASIA",
    "updated_at": "14:14:24"
  },
  "Kuala Lumpur": {
    "city": "Kuala Lumpur",
    "metar_temp": 30,
    "metar_raw": "METAR (WMKK): WMKK 071100Z VRB02KT 9000 FEW030 30/26 Q1009 NOSIG",
    "spread": 2.3,
    "models": [
      {
        "name": "GFS",
        "temp": 27.8
      },
      {
        "name": "ICON",
        "temp": 30.1
      },
      {
        "name": "GEM",
        "temp": 29.2
      }
    ],
    "weather": {
      "clouds": 79,
      "humidity": 95,
      "condition": "Cloudy",
      "local_time": "19:14"
    },
    "cutoff": "13:30",
    "region": "ASIA",
    "updated_at": "14:14:25"
  },
  "Shanghai": {
    "city": "Shanghai",
    "metar_temp": 31,
    "metar_raw": "METAR (ZSPD): ZSPD 071100Z 18006MPS CAVOK 31/26 Q1001 NOSIG",
    "spread": 1.9,
    "models": [
      {
        "name": "GFS",
        "temp": 27.7
      },
      {
        "name": "ICON",
        "temp": 29.6
      },
      {
        "name": "GEM",
        "temp": 29.6
      }
    ],
    "weather": {
      "clouds": 70,
      "humidity": 82,
      "condition": "Partly Cloudy",
      "local_time": "19:14"
    },
    "cutoff": "12:30",
    "region": "ASIA",
    "updated_at": "14:14:26"
  },
  "Guangzhou": {
    "city": "Guangzhou",
    "metar_temp": 27,
    "metar_raw": "METAR (ZGGG): ZGGG 071104Z 13004MPS 7000 SHRA SCT010 FEW020CB BKN026 27/26 Q1006 BECMG AT1130 NSW",
    "spread": 1.7,
    "models": [
      {
        "name": "GFS",
        "temp": 25.2
      },
      {
        "name": "ICON",
        "temp": 26.9
      },
      {
        "name": "GEM",
        "temp": 26.3
      }
    ],
    "weather": {
      "clouds": 94,
      "humidity": 96,
      "condition": "Cloudy",
      "local_time": "19:14"
    },
    "cutoff": "15:30",
    "region": "ASIA",
    "updated_at": "14:14:27"
  },
  "Qingdao": {
    "city": "Qingdao",
    "metar_temp": 22,
    "metar_raw": "METAR (ZSQD): ZSQD 071100Z 01002MPS 330V040 9999 -RA SCT011 SCT020 22/22 Q0999 NOSIG",
    "spread": 2.0,
    "models": [
      {
        "name": "GFS",
        "temp": 21.8
      },
      {
        "name": "ICON",
        "temp": 23.5
      },
      {
        "name": "GEM",
        "temp": 23.8
      }
    ],
    "weather": {
      "clouds": 100,
      "humidity": 96,
      "condition": "Cloudy",
      "local_time": "19:14"
    },
    "cutoff": "14:00",
    "region": "ASIA",
    "updated_at": "14:14:29"
  },
  "Manila": {
    "city": "Manila",
    "metar_temp": 30,
    "metar_raw": "METAR (RPLL): RPLL 071100Z 25009KT 9999 FEW023CB SCT025 BKN100 30/26 Q1007 NOSIG RMK A2974 CB N-NE",
    "spread": 0.9,
    "models": [
      {
        "name": "GFS",
        "temp": 29.4
      },
      {
        "name": "ICON",
        "temp": 30.3
      },
      {
        "name": "GEM",
        "temp": 30.0
      }
    ],
    "weather": {
      "clouds": 89,
      "humidity": 88,
      "condition": "Thunderstorm",
      "local_time": "19:14"
    },
    "cutoff": "14:30",
    "region": "ASIA",
    "updated_at": "14:14:30"
  },
  "Lucknow": {
    "city": "Lucknow",
    "metar_temp": 32,
    "metar_raw": "METAR (VILK): VILK 071100Z 08015G25KT 4000 HZ SCT018 FEW030CB BKN090 32/26 Q0994 NOSIG",
    "spread": 4.5,
    "models": [
      {
        "name": "GFS",
        "temp": 32.2
      },
      {
        "name": "ICON",
        "temp": 31.6
      },
      {
        "name": "GEM",
        "temp": 27.7
      }
    ],
    "weather": {
      "clouds": 92,
      "humidity": 82,
      "condition": "Thunderstorm",
      "local_time": "16:44"
    },
    "cutoff": "16:00",
    "region": "ASIA",
    "updated_at": "14:14:31"
  },
  "Karachi": {
    "city": "Karachi",
    "metar_temp": null,
    "metar_raw": "",
    "spread": 2.0,
    "models": [
      {
        "name": "GFS",
        "temp": 31.5
      },
      {
        "name": "ICON",
        "temp": 33.0
      },
      {
        "name": "GEM",
        "temp": 33.5
      }
    ],
    "weather": {
      "clouds": 61,
      "humidity": 58,
      "condition": "Partly Cloudy",
      "local_time": "16:14"
    },
    "cutoff": "17:00",
    "region": "ASIA",
    "updated_at": "14:14:33"
  }
}