{
  "London": {
    "city": "London",
    "metar_temp": 30,
    "metar_raw": "METAR (EGLC): EGLC 071250Z AUTO 26011KT 220V290 9999 NCD 30/11 Q1015",
    "spread": 2.2,
    "models": [
      {
        "name": "GFS",
        "temp": 30.6
      },
      {
        "name": "ICON",
        "temp": 28.5
      },
      {
        "name": "GEM",
        "temp": 28.4
      }
    ],
    "weather": {
      "clouds": 46,
      "humidity": 27,
      "condition": "Clear",
      "local_time": "14:18"
    },
    "cutoff": "22:00",
    "region": "EUROPE",
    "updated_at": "16:18:22"
  },
  "Paris": {
    "city": "Paris",
    "metar_temp": 32,
    "metar_raw": "METAR (LFPG): LFPG 071300Z 30010KT 240V340 CAVOK 32/11 Q1017 NOSIG",
    "spread": 2.2,
    "models": [
      {
        "name": "GFS",
        "temp": 34.4
      },
      {
        "name": "ICON",
        "temp": 32.2
      },
      {
        "name": "GEM",
        "temp": 32.3
      }
    ],
    "weather": {
      "clouds": 100,
      "humidity": 24,
      "condition": "Overcast",
      "local_time": "15:18"
    },
    "cutoff": "21:00",
    "region": "EUROPE",
    "updated_at": "16:18:23"
  },
  "Madrid": {
    "city": "Madrid",
    "metar_temp": 39,
    "metar_raw": "METAR (LEMD): LEMD 071300Z 17007KT 110V210 CAVOK 39/07 Q1019 NOSIG",
    "spread": 0.9,
    "models": [
      {
        "name": "GFS",
        "temp": 37.7
      },
      {
        "name": "ICON",
        "temp": 38.6
      },
      {
        "name": "GEM",
        "temp": 38.5
      }
    ],
    "weather": {
      "clouds": 13,
      "humidity": 16,
      "condition": "Clear",
      "local_time": "15:18"
    },
    "cutoff": "21:00",
    "region": "EUROPE",
    "updated_at": "16:18:24"
  },
  "Ankara": {
    "city": "Ankara",
    "metar_temp": 27,
    "metar_raw": "METAR (LTAC): LTAC 071250Z 05007KT 9999 SCT040 SCT100 27/09 Q1014 NOSIG",
    "spread": 0.6,
    "models": [
      {
        "name": "GFS",
        "temp": 26.7
      },
      {
        "name": "ICON",
        "temp": 26.9
      },
      {
        "name": "GEM",
        "temp": 26.3
      }
    ],
    "weather": {
      "clouds": 36,
      "humidity": 30,
      "condition": "Clear",
      "local_time": "16:18"
    },
    "cutoff": "18:00",
    "region": "EUROPE",
    "updated_at": "16:18:26"
  },
  "Istanbul": {
    "city": "Istanbul",
    "metar_temp": 26,
    "metar_raw": "METAR (LTFM): LTFM 071250Z 08012KT 040V100 CAVOK 26/15 Q1015 NOSIG",
    "spread": 0.9,
    "models": [
      {
        "name": "GFS",
        "temp": 27.1
      },
      {
        "name": "ICON",
        "temp": 26.8
      },
      {
        "name": "GEM",
        "temp": 27.7
      }
    ],
    "weather": {
      "clouds": 0,
      "humidity": 52,
      "condition": "Clear",
      "local_time": "16:18"
    },
    "cutoff": "18:00",
    "region": "EUROPE",
    "updated_at": "16:18:27"
  },
  "Helsinki": {
    "city": "Helsinki",
    "metar_temp": 15,
    "metar_raw": "METAR (EFHK): EFHK 071250Z 25008KT 220V290 9999 SCT020 FEW030CB 15/11 Q0995 TEMPO FEW030",
    "spread": 1.6,
    "models": [
      {
        "name": "GFS",
        "temp": 15.4
      },
      {
        "name": "ICON",
        "temp": 14.9
      },
      {
        "name": "GEM",
        "temp": 13.8
      }
    ],
    "weather": {
      "clouds": 95,
      "humidity": 84,
      "condition": "Overcast",
      "local_time": "16:18"
    },
    "cutoff": "20:00",
    "region": "EUROPE",
    "updated_at": "16:18:28"
  },
  "Moscow": {
    "city": "Moscow",
    "metar_temp": 17,
    "metar_raw": "METAR (UUEE): UUEE 071300Z 25005MPS 9999 -SHRA SCT047CB 17/10 Q1006 R24L/290151 R24C/290151 NOSIG",
    "spread": 2.6,
    "models": [
      {
        "name": "GFS",
        "temp": 14.2
      },
      {
        "name": "ICON",
        "temp": 15.7
      },
      {
        "name": "GEM",
        "temp": 16.8
      }
    ],
    "weather": {
      "clouds": 100,
      "humidity": 77,
      "condition": "Rain",
      "local_time": "16:18"
    },
    "cutoff": "17:30",
    "region": "EUROPE",
    "updated_at": "16:18:29"
  },
  "Rome": {
    "city": "Rome",
    "metar_temp": 29,
    "metar_raw": "METAR (LIRF): LIRF 071250Z 24011KT CAVOK 29/22 Q1017 NOSIG",
    "spread": 1.1,
    "models": [
      {
        "name": "GFS",
        "temp": 29.1
      },
      {
        "name": "ICON",
        "temp": 29.1
      },
      {
        "name": "GEM",
        "temp": 30.2
      }
    ],
    "weather": {
      "clouds": 17,
      "humidity": 61,
      "condition": "Clear",
      "local_time": "15:18"
    },
    "cutoff": "19:00",
    "region": "EUROPE",
    "updated_at": "16:18:31"
  },
  "Berlin": {
    "city": "Berlin",
    "metar_temp": 23,
    "metar_raw": "METAR (EDDB): EDDB 071250Z AUTO 25016KT 220V290 CAVOK 23/14 Q1007 TEMPO 27015G25KT",
    "spread": 1.3,
    "models": [
      {
        "name": "GFS",
        "temp": 24.7
      },
      {
        "name": "ICON",
        "temp": 23.4
      },
      {
        "name": "GEM",
        "temp": 23.7
      }
    ],
    "weather": {
      "clouds": 100,
      "humidity": 51,
      "condition": "Overcast",
      "local_time": "15:18"
    },
    "cutoff": "19:00",
    "region": "EUROPE",
    "updated_at": "16:18:32"
  },
  "Munich": {
    "city": "Munich",
    "metar_temp": 28,
    "metar_raw": "METAR (EDDM): EDDM 071250Z AUTO 25020KT CAVOK 28/11 Q1016 TEMPO 27020G35KT",
    "spread": 3.8,
    "models": [
      {
        "name": "GFS",
        "temp": 27.0
      },
      {
        "name": "ICON",
        "temp": 29.9
      },
      {
        "name": "GEM",
        "temp": 26.1
      }
    ],
    "weather": {
      "clouds": 100,
      "humidity": 27,
      "condition": "Overcast",
      "local_time": "15:18"
    },
    "cutoff": "19:30",
    "region": "EUROPE",
    "updated_at": "16:18:33"
  },
  "Amsterdam": {
    "city": "Amsterdam",
    "metar_temp": 23,
    "metar_raw": "METAR (EHAM): EHAM 071255Z 30018KT 240V330 9999 FEW028 23/15 Q1014 NOSIG",
    "spread": 1.5,
    "models": [
      {
        "name": "GFS",
        "temp": 23.3
      },
      {
        "name": "ICON",
        "temp": 21.9
      },
      {
        "name": "GEM",
        "temp": 21.8
      }
    ],
    "weather": {
      "clouds": 73,
      "humidity": 52,
      "condition": "Partly Cloudy",
      "local_time": "15:18"
    },
    "cutoff": "20:00",
    "region": "EUROPE",
    "updated_at": "16:18:34"
  },
  "Vienna": {
    "city": "Vienna",
    "metar_temp": 29,
    "metar_raw": "METAR (LOWW): LOWW 071250Z 28018G31KT CAVOK 29/09 Q1013 NOSIG",
    "spread": 1.7,
    "models": [
      {
        "name": "GFS",
        "temp": 29.7
      },
      {
        "name": "ICON",
        "temp": 30.9
      },
      {
        "name": "GEM",
        "temp": 29.2
      }
    ],
    "weather": {
      "clouds": 100,
      "humidity": 29,
      "condition": "Overcast",
      "local_time": "15:18"
    },
    "cutoff": "19:30",
    "region": "EUROPE",
    "updated_at": "16:18:36"
  },
  "Prague": {
    "city": "Prague",
    "metar_temp": 26,
    "metar_raw": "METAR (LKPR): LKPR 071300Z 27019KT CAVOK 26/10 Q1012 NOSIG",
    "spread": 1.6,
    "models": [
      {
        "name": "GFS",
        "temp": 26.6
      },
      {
        "name": "ICON",
        "temp": 26.3
      },
      {
        "name": "GEM",
        "temp": 25.0
      }
    ],
    "weather": {
      "clouds": 99,
      "humidity": 34,
      "condition": "Overcast",
      "local_time": "15:18"
    },
    "cutoff": "19:30",
    "region": "EUROPE",
    "updated_at": "16:18:37"
  },
  "Warsaw": {
    "city": "Warsaw",
    "metar_temp": 19,
    "metar_raw": "METAR (EPWA): EPWA 071300Z 24008KT 9999 FEW040CB BKN048 19/16 Q1006 TEMPO 4000 SHRA",
    "spread": 2.2,
    "models": [
      {
        "name": "GFS",
        "temp": 18.0
      },
      {
        "name": "ICON",
        "temp": 17.5
      },
      {
        "name": "GEM",
        "temp": 19.7
      }
    ],
    "weather": {
      "clouds": 100,
      "humidity": 92,
      "condition": "Cloudy",
      "local_time": "15:18"
    },
    "cutoff": "19:00",
    "region": "EUROPE",
    "updated_at": "16:18:38"
  },
  "Stockholm": {
    "city": "Stockholm",
    "metar_temp": 17,
    "metar_raw": "METAR (ESSA): ESSA 071250Z 17005KT 140V200 CAVOK 17/04 Q0995 NOSIG",
    "spread": 1.8,
    "models": [
      {
        "name": "GFS",
        "temp": 20.0
      },
      {
        "name": "ICON",
        "temp": 18.2
      },
      {
        "name": "GEM",
        "temp": 19.1
      }
    ],
    "weather": {
      "clouds": 84,
      "humidity": 37,
      "condition": "Overcast",
      "local_time": "15:18"
    },
    "cutoff": "19:30",
    "region": "EUROPE",
    "updated_at": "16:18:40"
  },
  "Oslo": {
    "city": "Oslo",
    "metar_temp": 13,
    "metar_raw": "METAR (ENGM): ENGM 071250Z 01016KT 9999 VCSH FEW023 BKN043 13/06 Q0998 NOSIG",
    "spread": 1.6,
    "models": [
      {
        "name": "GFS",
        "temp": 14.7
      },
      {
        "name": "ICON",
        "temp": 13.1
      },
      {
        "name": "GEM",
        "temp": 13.2
      }
    ],
    "weather": {
      "clouds": 63,
      "humidity": 58,
      "condition": "Partly Cloudy",
      "local_time": "15:18"
    },
    "cutoff": "20:00",
    "region": "EUROPE",
    "updated_at": "16:18:41"
  },
  "Athens": {
    "city": "Athens",
    "metar_temp": 32,
    "metar_raw": "METAR (LGAV): LGAV 071250Z 05014KT 9999 SCT025 32/11 Q1014 NOSIG",
    "spread": 2.5,
    "models": [
      {
        "name": "GFS",
        "temp": 32.1
      },
      {
        "name": "ICON",
        "temp": 31.0
      },
      {
        "name": "GEM",
        "temp": 29.6
      }
    ],
    "weather": {
      "clouds": 15,
      "humidity": 33,
      "condition": "Clear",
      "local_time": "16:18"
    },
    "cutoff": "18:00",
    "region": "EUROPE",
    "updated_at": "16:18:42"
  },
  "Lisbon": {
    "city": "Lisbon",
    "metar_temp": 31,
    "metar_raw": "METAR (LPPT): LPPT 071300Z 36009KT 310V030 CAVOK 31/16 Q1019 NOSIG",
    "spread": 2.8,
    "models": [
      {
        "name": "GFS",
        "temp": 32.8
      },
      {
        "name": "ICON",
        "temp": 30.0
      },
      {
        "name": "GEM",
        "temp": 30.6
      }
    ],
    "weather": {
      "clouds": 0,
      "humidity": 43,
      "condition": "Clear",
      "local_time": "14:18"
    },
    "cutoff": "22:00",
    "region": "EUROPE",
    "updated_at": "16:18:43"
  },
  "Dublin": {
    "city": "Dublin",
    "metar_temp": 23,
    "metar_raw": "METAR (EIDW): EIDW 071300Z 28010KT 240V300 9999 FEW018 23/15 Q1018 NOSIG",
    "spread": 1.9,
    "models": [
      {
        "name": "GFS",
        "temp": 23.6
      },
      {
        "name": "ICON",
        "temp": 21.7
      },
      {
        "name": "GEM",
        "temp": 23.5
      }
    ],
    "weather": {
      "clouds": 4,
      "humidity": 57,
      "condition": "Clear",
      "local_time": "14:18"
    },
    "cutoff": "22:00",
    "region": "EUROPE",
    "updated_at": "16:18:45"
  }
}