{
  "Guangzhou": {
    "city": "Guangzhou",
    "metar_temp": 29,
    "metar_raw": "2026/07/07 05:30\nZGGG 070530Z 12006MPS 9999 -SHRA SCT016 OVC040 29/25 Q1007 NOSIG",
    "spread": 0,
    "models": [],
    "updated_at": "09:00:10"
  },
  "Chengdu": {
    "city": "Chengdu",
    "metar_temp": 35,
    "metar_raw": "2026/07/07 05:00\nZUUU 070500Z VRB01MPS 8000 FEW050 35/23 Q1001 NOSIG",
    "spread": 0,
    "models": [],
    "updated_at": "09:00:11"
  },
  "Hong Kong": {
    "city": "Hong Kong",
    "metar_temp": 29,
    "metar_raw": "2026/07/07 05:30\nVHHH 070530Z 08010KT 9999 FEW010 FEW015CB SCT025 29/26 Q1007 TEMPO 19015G25KT 2000 TSRA SHRA FEW008CB SCT020",
    "spread": 0.7,
    "models": [
      {
        "name": "GFS",
        "temp": 27.0
      },
      {
        "name": "ICON",
        "temp": 26.9
      },
      {
        "name": "GEM",
        "temp": 27.6
      }
    ],
    "updated_at": "09:00:13"
  },
  "London": {
    "city": "London",
    "metar_temp": 19,
    "metar_raw": "2026/07/07 05:50\nEGLL 070550Z AUTO 27009KT 9999 NCD 19/10 Q1016",
    "spread": 1.3,
    "models": [
      {
        "name": "GFS",
        "temp": 23.5
      },
      {
        "name": "ICON",
        "temp": 24.8
      },
      {
        "name": "GEM",
        "temp": 23.5
      }
    ],
    "updated_at": "09:00:14"
  },
  "NYC": {
    "city": "NYC",
    "metar_temp": 18,
    "metar_raw": "2026/07/07 05:51\nKJFK 070551Z 03011KT 3SM OVC005 18/18 A3003 RMK SLP170 60000T01830178 10194 20183 55008 $",
    "spread": 1.4,
    "models": [
      {
        "name": "GFS",
        "temp": 18.4
      },
      {
        "name": "ICON",
        "temp": 19.8
      },
      {
        "name": "GEM",
        "temp": 19.5
      }
    ],
    "updated_at": "09:00:16"
  },
  "Madrid": {
    "city": "Madrid",
    "metar_temp": 22,
    "metar_raw": "2026/07/07 05:30\nLEMD 070530Z 33003KT 290V360 CAVOK 22/08 Q1020 NOSIG",
    "spread": 6.2,
    "models": [
      {
        "name": "GFS",
        "temp": 32.8
      },
      {
        "name": "ICON",
        "temp": 31.3
      },
      {
        "name": "GEM",
        "temp": 26.6
      }
    ],
    "updated_at": "09:00:17"
  },
  "Moscow": {
    "city": "Moscow",
    "metar_temp": 15,
    "metar_raw": "2026/07/07 05:30\nUUEE 070530Z 22005MPS 200V260 9999 SCT009 15/13 Q1004 R24L/209145 R24C/290145 NOSIG",
    "spread": 0.8,
    "models": [
      {
        "name": "GFS",
        "temp": 14.7
      },
      {
        "name": "ICON",
        "temp": 15.5
      },
      {
        "name": "GEM",
        "temp": 15.4
      }
    ],
    "updated_at": "09:00:18"
  },
  "Paris": {
    "city": "Paris",
    "metar_temp": 21,
    "metar_raw": "2026/07/07 05:30\nLFPG 070530Z 25003KT CAVOK 21/10 Q1018 NOSIG",
    "spread": 5.2,
    "models": [
      {
        "name": "GFS",
        "temp": 26.4
      },
      {
        "name": "ICON",
        "temp": 28.5
      },
      {
        "name": "GEM",
        "temp": 23.3
      }
    ],
    "updated_at": "09:00:19"
  }
}